{"type": "FeatureCollection", "features": [ {"type": "Feature", "properties": {"norad_id": 33825, "name": "COSMOS 2251 DEB", "group": "cosmos-2251-debris", "lat": 49.74728086455226, "lon": 172.6549998379327, "alt_km": 708.2332087945051, "timestamp": "2025-12-20T14:38:02.361774+00:00", "meta": {"OBJECT_NAME": "COSMOS 2251 DEB", "OBJECT_ID": "1993-036BS", "EPOCH": "2025-12-20T02:52:25.802976", "MEAN_MOTION": 14.69823402, "ECCENTRICITY": 0.00849139, "INCLINATION": 73.9844, "RA_OF_ASC_NODE": 13.4392, "ARG_OF_PERICENTER": 338.7334, "MEAN_ANOMALY": 76.4072, "EPHEMERIS_TYPE": 0, "CLASSIFICATION_TYPE": "U", "NORAD_CAT_ID": 33825, "ELEMENT_SET_NO": 999, "REV_AT_EPOCH": 88988, "BSTAR": 0.00053514296, "MEAN_MOTION_DOT": 3.345e-05, "MEAN_MOTION_DDOT": 0}, "tle": {"line1": "1 33825U 93036BS  25354.11974309  .00003345  00000+0  53514-3 0  9990", "line2": "2 33825  73.9844  13.4392 0084913 338.7334  76.4072 14.69823402889882"}}, "geometry": {"type": "Point", "coordinates": [172.6549998379327, 49.74728086455226]}}, {"type": "Feature", "properties": {"norad_id": 33826, "name": "COSMOS 2251 DEB", "group": "cosmos-2251-debris", "lat": -43.836058097029245, "lon": -128.9972501772077, "alt_km": 776.4660937083218, "timestamp": "2025-12-20T14:38:02.361784+00:00", "meta": {"OBJECT_NAME": "COSMOS 2251 DEB", "OBJECT_ID": "1993-036BT", "EPOCH": "2025-12-20T03:55:55.835616", "MEAN_MOTION": 14.51754585, "ECCENTRICITY": 0.00825827, "INCLINATION": 74.0645, "RA_OF_ASC_NODE": 35.9183, "ARG_OF_PERICENTER": 77.77, "MEAN_ANOMALY": 338.2277, "EPHEMERIS_TYPE": 0, "CLASSIFICATION_TYPE": "U", "NORAD_CAT_ID": 33826, "ELEMENT_SET_NO": 999, "REV_AT_EPOCH": 87877, "BSTAR": 0.00038261043, "MEAN_MOTION_DOT": 1.579e-05, "MEAN_MOTION_DDOT": 0}, "tle": {"line1": "1 33826U 93036BT  25354.16384069  .00001579  00000+0  38261-3 0  9993", "line2": "2 33826  74.0645  35.9183 0082582  77.7700 338.2277 14.51754585878776"}}, "geometry": {"type": "Point", "coordinates": [-128.9972501772077, -43.836058097029245]}}, {"type": "Feature", "properties": {"norad_id": 33828, "name": "COSMOS 2251 DEB", "group": "cosmos-2251-debris", "lat": -73.82181134560365, "lon": 143.02860288880737, "alt_km": 731.6738475847842, "timestamp": "2025-12-20T14:38:02.361795+00:00", "meta": {"OBJECT_NAME": "COSMOS 2251 DEB", "OBJECT_ID": "1993-036BV", "EPOCH": "2025-12-20T02:16:33.636000", "MEAN_MOTION": 14.44352826, "ECCENTRICITY": 0.00295153, "INCLINATION": 74.0454, "RA_OF_ASC_NODE": 224.4131, "ARG_OF_PERICENTER": 296.2136, "MEAN_ANOMALY": 180.2696, "EPHEMERIS_TYPE": 0, "CLASSIFICATION_TYPE": "U", "NORAD_CAT_ID": 33828, "ELEMENT_SET_NO": 999, "REV_AT_EPOCH": 88419, "BSTAR": 0.00028362143, "MEAN_MOTION_DOT": 9.55e-06, "MEAN_MOTION_DDOT": 0}, "tle": {"line1": "1 33828U 93036BV  25354.09483375  .00000955  00000+0  28362-3 0  9995", "line2": "2 33828  74.0454 224.4131 0029515 296.2136 180.2696 14.44352826884199"}}, "geometry": {"type": "Point", "coordinates": [143.02860288880737, -73.82181134560365]}}, {"type": "Feature", "properties": {"norad_id": 33830, "name": "COSMOS 2251 DEB", "group": "cosmos-2251-debris", "lat": -9.136360735640537, "lon": -147.70368054984885, "alt_km": 614.1051754568143, "timestamp": "2025-12-20T14:38:02.361805+00:00", "meta": {"OBJECT_NAME": "COSMOS 2251 DEB", "OBJECT_ID": "1993-036BX", "EPOCH": "2025-12-20T02:23:57.641280", "MEAN_MOTION": 14.76972703, "ECCENTRICITY": 0.00425749, "INCLINATION": 74.0314, "RA_OF_ASC_NODE": 215.935, "ARG_OF_PERICENTER": 334.516, "MEAN_ANOMALY": 186.5439, "EPHEMERIS_TYPE": 0, "CLASSIFICATION_TYPE": "U", "NORAD_CAT_ID": 33830, "ELEMENT_SET_NO": 999, "REV_AT_EPOCH": 89580, "BSTAR": 0.00047360759, "MEAN_MOTION_DOT": 3.353e-05, "MEAN_MOTION_DDOT": 0}, "tle": {"line1": "1 33830U 93036BX  25354.09997270  .00003353  00000+0  47361-3 0  9997", "line2": "2 33830  74.0314 215.9350 0042574 334.5160 186.5439 14.76972703895809"}}, "geometry": {"type": "Point", "coordinates": [-147.70368054984885, -9.136360735640537]}}, {"type": "Feature", "properties": {"norad_id": 33832, "name": "COSMOS 2251 DEB", "group": "cosmos-2251-debris", "lat": -55.60385061592031, "lon": 170.27049989351718, "alt_km": 693.4139760586522, "timestamp": "2025-12-20T14:38:02.361815+00:00", "meta": {"OBJECT_NAME": "COSMOS 2251 DEB", "OBJECT_ID": "1993-036BZ", "EPOCH": "2025-12-20T00:41:28.834944", "MEAN_MOTION": 14.60724884, "ECCENTRICITY": 0.00244456, "INCLINATION": 74.0526, "RA_OF_ASC_NODE": 196.0661, "ARG_OF_PERICENTER": 225.809, "MEAN_ANOMALY": 261.1644, "EPHEMERIS_TYPE": 0, "CLASSIFICATION_TYPE": "U", "NORAD_CAT_ID": 33832, "ELEMENT_SET_NO": 999, "REV_AT_EPOCH": 88531, "BSTAR": 0.00082299285, "MEAN_MOTION_DOT": 4.002e-05, "MEAN_MOTION_DDOT": 0}, "tle": {"line1": "1 33832U 93036BZ  25354.02880596  .00004002  00000+0  82299-3 0  9995", "line2": "2 33832  74.0526 196.0661 0024445 225.8090 261.1644 14.60724884885312"}}, "geometry": {"type": "Point", "coordinates": [170.27049989351718, -55.60385061592031]}}, {"type": "Feature", "properties": {"norad_id": 33835, "name": "COSMOS 2251 DEB", "group": "cosmos-2251-debris", "lat": -1.6308480897072508, "lon": -93.47723428077566, "alt_km": 661.069913449076, "timestamp": "2025-12-20T14:38:02.361825+00:00", "meta": {"OBJECT_NAME": "COSMOS 2251 DEB", "OBJECT_ID": "1993-036CC", "EPOCH": "2025-12-20T05:43:53.062176", "MEAN_MOTION": 14.62318001, "ECCENTRICITY": 0.00541099, "INCLINATION": 74.0578, "RA_OF_ASC_NODE": 86.7657, "ARG_OF_PERICENTER": 138.1207, "MEAN_ANOMALY": 251.07, "EPHEMERIS_TYPE": 0, "CLASSIFICATION_TYPE": "U", "NORAD_CAT_ID": 33835, "ELEMENT_SET_NO": 999, "REV_AT_EPOCH": 88899, "BSTAR": 0.00061848729, "MEAN_MOTION_DOT": 3.16e-05, "MEAN_MOTION_DDOT": 0}, "tle": {"line1": "1 33835U 93036CC  25354.23880859  .00003160  00000+0  61849-3 0  9995", "line2": "2 33835  74.0578  86.7657 0054109 138.1207 251.0700 14.62318001888998"}}, "geometry": {"type": "Point", "coordinates": [-93.47723428077566, -1.6308480897072508]}}, {"type": "Feature", "properties": {"norad_id": 33836, "name": "COSMOS 2251 DEB", "group": "cosmos-2251-debris", "lat": -21.953432027998844, "lon": -123.22265613621369, "alt_km": 642.2124420887258, "timestamp": "2025-12-20T14:38:02.361835+00:00", "meta": {"OBJECT_NAME": "COSMOS 2251 DEB", "OBJECT_ID": "1993-036CD", "EPOCH": "2025-12-20T04:04:27.302016", "MEAN_MOTION": 14.79738442, "ECCENTRICITY": 0.00227005, "INCLINATION": 73.997, "RA_OF_ASC_NODE": 244.2883, "ARG_OF_PERICENTER": 94.6468, "MEAN_ANOMALY": 59.9368, "EPHEMERIS_TYPE": 0, "CLASSIFICATION_TYPE": "U", "NORAD_CAT_ID": 33836, "ELEMENT_SET_NO": 999, "REV_AT_EPOCH": 64198, "BSTAR": 0.00071191596, "MEAN_MOTION_DOT": 5.345e-05, "MEAN_MOTION_DDOT": 0}, "tle": {"line1": "1 33836U 93036CD  25354.16976044  .00005345  00000+0  71192-3 0  9999", "line2": "2 33836  73.9970 244.2883 0022700  94.6468  59.9368 14.79738442641986"}}, "geometry": {"type": "Point", "coordinates": [-123.22265613621369, -21.953432027998844]}}, {"type": "Feature", "properties": {"norad_id": 33837, "name": "COSMOS 2251 DEB", "group": "cosmos-2251-debris", "lat": -34.31231315341048, "lon": -127.93508395130597, "alt_km": 711.2186555371045, "timestamp": "2025-12-20T14:38:02.361845+00:00", "meta": {"OBJECT_NAME": "COSMOS 2251 DEB", "OBJECT_ID": "1993-036CE", "EPOCH": "2025-12-20T03:42:32.465952", "MEAN_MOTION": 14.50715785, "ECCENTRICITY": 0.00359053, "INCLINATION": 74.0125, "RA_OF_ASC_NODE": 41.6382, "ARG_OF_PERICENTER": 262.1688, "MEAN_ANOMALY": 97.5396, "EPHEMERIS_TYPE": 0, "CLASSIFICATION_TYPE": "U", "NORAD_CAT_ID": 33837, "ELEMENT_SET_NO": 999, "REV_AT_EPOCH": 88903, "BSTAR": 0.00017344566, "MEAN_MOTION_DOT": 6.59e-06, "MEAN_MOTION_DDOT": 0}, "tle": {"line1": "1 33837U 93036CE  25354.15454243  .00000659  00000+0  17345-3 0  9994", "line2": "2 33837  74.0125  41.6382 0035905 262.1688  97.5396 14.50715785889034"}}, "geometry": {"type": "Point", "coordinates": [-127.93508395130597, -34.31231315341048]}}, {"type": "Feature", "properties": {"norad_id": 33838, "name": "COSMOS 2251 DEB", "group": "cosmos-2251-debris", "lat": 21.707875632374773, "lon": 141.61948381918916, "alt_km": 742.1100628616705, "timestamp": "2025-12-20T14:38:02.361855+00:00", "meta": {"OBJECT_NAME": "COSMOS 2251 DEB", "OBJECT_ID": "1993-036CF", "EPOCH": "2025-12-18T20:00:12.340224", "MEAN_MOTION": 14.48380976, "ECCENTRICITY": 0.00275019, "INCLINATION": 74.0361, "RA_OF_ASC_NODE": 138.4014, "ARG_OF_PERICENTER": 259.447, "MEAN_ANOMALY": 224.9911, "EPHEMERIS_TYPE": 0, "CLASSIFICATION_TYPE": "U", "NORAD_CAT_ID": 33838, "ELEMENT_SET_NO": 999, "REV_AT_EPOCH": 88657, "BSTAR": 0.00031263295, "MEAN_MOTION_DOT": 1.148e-05, "MEAN_MOTION_DDOT": 0}, "tle": {"line1": "1 33838U 93036CF  25352.83347616  .00001148  00000+0  31263-3 0  9992", "line2": "2 33838  74.0361 138.4014 0027501 259.4470 224.9911 14.48380976886577"}}, "geometry": {"type": "Point", "coordinates": [141.61948381918916, 21.707875632374773]}}, {"type": "Feature", "properties": {"norad_id": 33839, "name": "COSMOS 2251 DEB", "group": "cosmos-2251-debris", "lat": 42.15526723540323, "lon": -153.62398716820698, "alt_km": 687.8907306667716, "timestamp": "2025-12-20T14:38:02.361865+00:00", "meta": {"OBJECT_NAME": "COSMOS 2251 DEB", "OBJECT_ID": "1993-036CG", "EPOCH": "2025-12-20T00:22:34.192992", "MEAN_MOTION": 14.64436773, "ECCENTRICITY": 0.00852914, "INCLINATION": 74.0376, "RA_OF_ASC_NODE": 192.499, "ARG_OF_PERICENTER": 302.9029, "MEAN_ANOMALY": 209.8341, "EPHEMERIS_TYPE": 0, "CLASSIFICATION_TYPE": "U", "NORAD_CAT_ID": 33839, "ELEMENT_SET_NO": 999, "REV_AT_EPOCH": 89686, "BSTAR": 0.00014134054, "MEAN_MOTION_DOT": 7.54e-06, "MEAN_MOTION_DDOT": 0}, "tle": {"line1": "1 33839U 93036CG  25354.01567353  .00000754  00000+0  14134-3 0  9997", "line2": "2 33839  74.0376 192.4990 0085291 302.9029 209.8341 14.64436773896868"}}, "geometry": {"type": "Point", "coordinates": [-153.62398716820698, 42.15526723540323]}}]}